[{"OBJECT_NAME":"QIANFAN-44","OBJECT_ID":"2024-232J","EPOCH":"2026-03-09T22:03:00.548640","MEAN_MOTION":13.5100338,"ECCENTRICITY":0.00121662,"INCLINATION":89.0067,"RA_OF_ASC_NODE":32.2758,"ARG_OF_PERICENTER":308.5439,"MEAN_ANOMALY":51.4621,"EPHEMERIS_TYPE":0,"CLASSIFICATION_TYPE":"U","NORAD_CAT_ID":62245,"ELEMENT_SET_NO":999,"REV_AT_EPOCH":11110,"BSTAR":0.00013972348,"MEAN_MOTION_DOT":1.02e-6,"MEAN_MOTION_DDOT":0},{"OBJECT_NAME":"FENGYUN 1C DEB","OBJECT_ID":"1999-025CHU","EPOCH":"2026-03-09T20:07:59.474784","MEAN_MOTION":13.83900143,"ECCENTRICITY":0.01839858,"INCLINATION":99.1589,"RA_OF_ASC_NODE":177.3511,"ARG_OF_PERICENTER":82.8569,"MEAN_ANOMALY":44.5973,"EPHEMERIS_TYPE":0,"CLASSIFICATION_TYPE":"U","NORAD_CAT_ID":31830,"ELEMENT_SET_NO":999,"REV_AT_EPOCH":93944,"BSTAR":0.0016877341,"MEAN_MOTION_DOT":2.093e-5,"MEAN_MOTION_DDOT":0}]
